{
  "type": "FeatureCollection",
  "features": [
    {
      "type": "Feature",
      "properties": {
        "norad_id": 26766,
        "name": "INTELSAT 10 (IS-10)",
        "group": "intelsat",
        "lat": -2.1317371064557813,
        "lon": 46.85385794083365,
        "alt_km": 36140.85695011364,
        "timestamp": "2025-12-23T14:49:08.997414+00:00",
        "meta_object_name": "INTELSAT 10 (IS-10)",
        "meta_object_id": "2001-019A",
        "meta_epoch": "2025-12-22T17:02:39.635808",
        "meta_mean_motion": 0.99073291,
        "meta_eccentricity": 0.00077896,
        "meta_inclination": 8.6516,
        "meta_ra_of_asc_node": 61.0562,
        "meta_arg_of_pericenter": 228.8792,
        "meta_mean_anomaly": 153.0858,
        "meta_ephemeris_type": 0,
        "meta_classification_type": "U",
        "meta_norad_cat_id": 26766,
        "meta_element_set_no": 999,
        "meta_rev_at_epoch": 4383,
        "meta_bstar": 0,
        "meta_mean_motion_dot": -4.3e-07,
        "meta_mean_motion_ddot": 0,
        "tle_line1": "1 26766U 01019A   25356.71018097 -.00000043  00000+0  00000+0 0  9998",
        "tle_line2": "2 26766   8.6516  61.0562 0007789 228.8792 153.0858  0.99073291 43832"
      },
      "geometry": {
        "type": "Point",
        "coordinates": [
          46.85385794083365,
          -2.1317371064557813
        ]
      }
    },
    {
      "type": "Feature",
      "properties": {
        "norad_id": 26900,
        "name": "INTELSAT 902 (IS-902)",
        "group": "intelsat",
        "lat": -1.059888354534044,
        "lon": -95.53409732732672,
        "alt_km": 35768.291940155024,
        "timestamp": "2025-12-23T14:49:08.997439+00:00",
        "meta_object_name": "INTELSAT 902 (IS-902)",
        "meta_object_id": "2001-039A",
        "meta_epoch": "2025-12-15T13:09:02.081664",
        "meta_mean_motion": 1.0027087,
        "meta_eccentricity": 0.00045028,
        "meta_inclination": 5.6536,
        "meta_ra_of_asc_node": 74.0372,
        "meta_arg_of_pericenter": 189.6359,
        "meta_mean_anomaly": 327.9329,
        "meta_ephemeris_type": 0,
        "meta_classification_type": "U",
        "meta_norad_cat_id": 26900,
        "meta_element_set_no": 999,
        "meta_rev_at_epoch": 8885,
        "meta_bstar": 0,
        "meta_mean_motion_dot": -2.65e-06,
        "meta_mean_motion_ddot": 0,
        "tle_line1": "1 26900U 01039A   25349.54794076 -.00000265  00000+0  00000+0 0  9997",
        "tle_line2": "2 26900   5.6536  74.0372 0004502 189.6359 327.9329  1.00270870 88858"
      },
      "geometry": {
        "type": "Point",
        "coordinates": [
          -95.53409732732672,
          -1.059888354534044
        ]
      }
    },
    {
      "type": "Feature",
      "properties": {
        "norad_id": 27380,
        "name": "INTELSAT 904 (IS-904)",
        "group": "intelsat",
        "lat": -3.4389060560594373,
        "lon": -76.97630254844216,
        "alt_km": 35779.45975097657,
        "timestamp": "2025-12-23T14:49:08.997457+00:00",
        "meta_object_name": "INTELSAT 904 (IS-904)",
        "meta_object_id": "2002-007A",
        "meta_epoch": "2025-12-23T02:42:38.784960",
        "meta_mean_motion": 1.00273733,
        "meta_eccentricity": 0.00018306,
        "meta_inclination": 6.4789,
        "meta_ra_of_asc_node": 71.3134,
        "meta_arg_of_pericenter": 243.7563,
        "meta_mean_anomaly": 146.0036,
        "meta_ephemeris_type": 0,
        "meta_classification_type": "U",
        "meta_norad_cat_id": 27380,
        "meta_element_set_no": 999,
        "meta_rev_at_epoch": 5000,
        "meta_bstar": 0,
        "meta_mean_motion_dot": -2.07e-06,
        "meta_mean_motion_ddot": 0,
        "tle_line1": "1 27380U 02007A   25357.11294890 -.00000207  00000+0  00000+0 0  9993",
        "tle_line2": "2 27380   6.4789  71.3134 0001830 243.7563 146.0036  1.00273733 50008"
      },
      "geometry": {
        "type": "Point",
        "coordinates": [
          -76.97630254844216,
          -3.4389060560594373
        ]
      }
    },
    {
      "type": "Feature",
      "properties": {
        "norad_id": 27426,
        "name": "DIRECTV 5 (TEMPO 1)",
        "group": "intelsat",
        "lat": 3.53276892108455,
        "lon": -155.3803654280478,
        "alt_km": 35781.93711572988,
        "timestamp": "2025-12-23T14:49:08.997471+00:00",
        "meta_object_name": "DIRECTV 5 (TEMPO 1)",
        "meta_object_id": "2002-023A",
        "meta_epoch": "2025-12-23T04:03:01.086912",
        "meta_mean_motion": 1.00271744,
        "meta_eccentricity": 0.00032183,
        "meta_inclination": 4.427,
        "meta_ra_of_asc_node": 77.5308,
        "meta_arg_of_pericenter": 201.3304,
        "meta_mean_anomaly": 123.7372,
        "meta_ephemeris_type": 0,
        "meta_classification_type": "U",
        "meta_norad_cat_id": 27426,
        "meta_element_set_no": 999,
        "meta_rev_at_epoch": 8635,
        "meta_bstar": 0,
        "meta_mean_motion_dot": -3.8e-07,
        "meta_mean_motion_ddot": 0,
        "tle_line1": "1 27426U 02023A   25357.16876258 -.00000038  00000+0  00000+0 0  9993",
        "tle_line2": "2 27426   4.4270  77.5308 0003218 201.3304 123.7372  1.00271744 86350"
      },
      "geometry": {
        "type": "Point",
        "coordinates": [
          -155.3803654280478,
          3.53276892108455
        ]
      }
    },
    {
      "type": "Feature",
      "properties": {
        "norad_id": 27438,
        "name": "INTELSAT 905 (IS-905)",
        "group": "intelsat",
        "lat": 6.089949521642971,
        "lon": 177.5557382434026,
        "alt_km": 35787.062931152985,
        "timestamp": "2025-12-23T14:49:08.997484+00:00",
        "meta_object_name": "INTELSAT 905 (IS-905)",
        "meta_object_id": "2002-027A",
        "meta_epoch": "2025-12-23T05:41:27.377952",
        "meta_mean_motion": 1.00273243,
        "meta_eccentricity": 0.00027491,
        "meta_inclination": 6.3102,
        "meta_ra_of_asc_node": 71.9349,
        "meta_arg_of_pericenter": 206.5226,
        "meta_mean_anomaly": 121.7385,
        "meta_ephemeris_type": 0,
        "meta_classification_type": "U",
        "meta_norad_cat_id": 27438,
        "meta_element_set_no": 999,
        "meta_rev_at_epoch": 4959,
        "meta_bstar": 0,
        "meta_mean_motion_dot": 1.12e-06,
        "meta_mean_motion_ddot": 0,
        "tle_line1": "1 27438U 02027A   25357.23712243  .00000112  00000+0  00000+0 0  9993",
        "tle_line2": "2 27438   6.3102  71.9349 0002749 206.5226 121.7385  1.00273243 49592"
      },
      "geometry": {
        "type": "Point",
        "coordinates": [
          177.5557382434026,
          6.089949521642971
        ]
      }
    },
    {
      "type": "Feature",
      "properties": {
        "norad_id": 27445,
        "name": "GALAXY 3C (G-3C)",
        "group": "intelsat",
        "lat": 2.1284348781459315,
        "lon": -140.10808322466977,
        "alt_km": 35783.23105511521,
        "timestamp": "2025-12-23T14:49:08.997497+00:00",
        "meta_object_name": "GALAXY 3C (G-3C)",
        "meta_object_id": "2002-030A",
        "meta_epoch": "2025-12-23T04:07:46.865280",
        "meta_mean_motion": 1.00271641,
        "meta_eccentricity": 0.00011418,
        "meta_inclination": 3.2882,
        "meta_ra_of_asc_node": 80.3953,
        "meta_arg_of_pericenter": 82.9722,
        "meta_mean_anomaly": 255.6879,
        "meta_ephemeris_type": 0,
        "meta_classification_type": "U",
        "meta_norad_cat_id": 27445,
        "meta_element_set_no": 999,
        "meta_rev_at_epoch": 4472,
        "meta_bstar": 0,
        "meta_mean_motion_dot": -1.33e-06,
        "meta_mean_motion_ddot": 0,
        "tle_line1": "1 27445U 02030A   25357.17207020 -.00000133  00000+0  00000+0 0  9994",
        "tle_line2": "2 27445   3.2882  80.3953 0001141  82.9722 255.6879  1.00271641 44723"
      },
      "geometry": {
        "type": "Point",
        "coordinates": [
          -140.10808322466977,
          2.1284348781459315
        ]
      }
    },
    {
      "type": "Feature",
      "properties": {
        "norad_id": 27513,
        "name": "INTELSAT 906 (IS-906)",
        "group": "intelsat",
        "lat": -4.450880114826204,
        "lon": 19.0223434674187,
        "alt_km": 35792.09990740032,
        "timestamp": "2025-12-23T14:49:08.997511+00:00",
        "meta_object_name": "INTELSAT 906 (IS-906)",
        "meta_object_id": "2002-041A",
        "meta_epoch": "2025-12-22T20:19:05.827008",
        "meta_mean_motion": 1.00273289,
        "meta_eccentricity": 0.0006296,
        "meta_inclination": 5.3553,
        "meta_ra_of_asc_node": 75.111,
        "meta_arg_of_pericenter": 200.9924,
        "meta_mean_anomaly": 184.4567,
        "meta_ephemeris_type": 0,
        "meta_classification_type": "U",
        "meta_norad_cat_id": 27513,
        "meta_element_set_no": 999,
        "meta_rev_at_epoch": 8526,
        "meta_bstar": 0,
        "meta_mean_motion_dot": 3.1e-07,
        "meta_mean_motion_ddot": 0,
        "tle_line1": "1 27513U 02041A   25356.84659522  .00000031  00000+0  00000+0 0  9999",
        "tle_line2": "2 27513   5.3553  75.1110 0006296 200.9924 184.4567  1.00273289 85263"
      },
      "geometry": {
        "type": "Point",
        "coordinates": [
          19.0223434674187,
          -4.450880114826204
        ]
      }
    }
  ]
}